OBJECT_NAME,OBJECT_ID,EPOCH,MEAN_MOTION,ECCENTRICITY,INCLINATION,RA_OF_ASC_NODE,ARG_OF_PERICENTER,MEAN_ANOMALY,EPHEMERIS_TYPE,CLASSIFICATION_TYPE,NORAD_CAT_ID,ELEMENT_SET_NO,REV_AT_EPOCH,BSTAR,MEAN_MOTION_DOT,MEAN_MOTION_DDOT
KUIPER-00549,2026-140AA,2026-07-04T17:56:20.659776,15.37205568,.00070075,51.8806,313.9047,339.4110,20.6593,0,U,69616,999,393,.78876156E-3,.28927E-3,0
KUIPER-00550,2026-140AB,2026-07-05T06:00:04.999968,15.33594895,.00069442,51.8802,311.7021,20.2326,131.6953,0,U,69617,999,325,.20696863E-2,.68523E-3,0
KUIPER-00551,2026-140AC,2026-07-04T09:36:37.569312,15.38013977,.00124281,51.8792,315.3353,236.2720,123.7083,0,U,69618,999,388,.92663044E-3,.35052E-3,0
KUIPER-00554,2026-140AD,2026-07-04T19:03:44.464032,15.37795517,.00112742,51.8799,313.4749,249.3268,110.6510,0,U,69619,999,394,.16977709E-2,.64314E-3,0
KUIPER-00555,2026-140AE,2026-07-04T20:33:56.060640,15.37939839,.00114399,51.8831,313.1502,240.8754,119.1088,0,U,69620,999,395,.13810504E-2,.5241E-3,0
KUIPER-00556,2026-140AF,2026-07-04T19:01:36.759648,15.38132398,.00122276,51.8812,313.4680,227.8886,132.1062,0,U,69621,999,394,.13248534E-2,.50582E-3,0
KUIPER-00557,2026-140AG,2026-07-04T17:34:30.268128,15.37347388,.00099505,51.8816,313.8112,257.0705,102.9170,0,U,69622,999,393,.16488239E-2,.61492E-3,0
KUIPER-00560,2026-140AH,2026-07-04T17:32:27.659616,15.38716800,.00091575,51.8784,313.7982,262.1846,97.8102,0,U,69623,999,393,.22830057E-2,.89501E-3,0
KUIPER-00561,2026-140AJ,2026-07-04T17:35:07.420992,15.38511982,.00080737,51.8816,313.8173,264.8241,95.1825,0,U,69624,999,393,.19179502E-2,.74454E-3,0
KUIPER-00564,2026-140AK,2026-07-04T19:03:37.853568,15.38838760,.00094456,51.8810,313.4792,254.1427,105.8520,0,U,69625,999,394,.15201273E-2,.59469E-3,0
KUIPER-00567,2026-140AL,2026-07-04T18:58:46.197408,15.38274975,.0012929,51.8783,313.4511,228.8684,131.1188,0,U,69626,999,394,.86458991E-3,.32958E-3,0
KUIPER-00573,2026-140AM,2026-07-04T17:39:03.277440,15.37296328,.00097312,51.8769,313.8274,242.2226,117.7775,0,U,69627,999,393,.14972689E-2,.55664E-3,0
KZ-11 R/B,2026-138H,2026-07-05T05:38:55.276800,15.31361881,.04233666,55.1567,202.1823,124.7005,239.4675,0,U,69628,999,271,.88601063E-3,.816176E-2,.956909E-5
ZHUQUE-2E DEB,2026-128D,2026-07-05T02:12:09.975168,15.75189001,.00507979,54.5293,218.6136,10.7475,349.4636,0,U,69629,999,400,.23532948E-2,.407015E-2,0
ZHUQUE-2E DEB,2026-128E,2026-07-04T19:04:50.130624,15.58561172,.00782279,54.5280,221.5272,20.3528,340.0591,0,U,69630,999,392,.29841608E-3,.26387E-3,0
ZHUQUE-2E DEB,2026-128F,2026-07-05T02:59:47.611104,15.66358722,.00632492,54.5237,219.4597,13.5236,346.7475,0,U,69631,999,398,.30047939E-2,.367099E-2,0
ZHUQUE-2E DEB,2026-128J,2026-07-05T02:56:09.878784,15.96684952,.00552468,54.5238,216.6205,49.8486,310.7381,0,U,69634,999,390,.57523486E-2,.2711983E-1,.61146519E-2
CENTISPACE-1 GROUP 05 OBJECT J,2026-138J,2026-07-05T05:09:36.265248,14.15846137,.0008838,55.1390,214.5577,321.6887,38.3459,0,U,69636,999,254,-.13670824E-3,-.424E-5,0
VICTUS HAZE PUMA,2026-142A,2026-07-05T07:26:29.245344,15.20728196,.00256058,97.4474,83.7278,302.9088,56.9684,0,U,69646,999,242,.25896134E-3,.5676E-4,0
HOKUSHIN-1,1998-067YH,2026-07-04T11:12:40.692096,15.50604554,.00061083,51.6311,214.4586,290.4297,69.6036,0,U,69648,999,233,.74498654E-3,.43241E-3,0
STARLINK-37656,2026-143A,2026-07-05T06:00:04.999968,15.64615020,.00013491,97.2840,229.9915,78.0751,66.7467,0,U,69649,999,336,-.15987219E-1,-.1367031E-1,0
STARLINK-37646,2026-143B,2026-07-05T04:49:37.790976,15.79836527,.00021761,97.2826,229.9988,132.6833,227.4618,0,U,69650,999,333,-.5159635E-2,-.857579E-2,0
STARLINK-37749,2026-143C,2026-07-04T13:35:06.800352,15.80896785,.00031053,97.2829,229.3314,75.0816,285.0796,0,U,69651,999,323,.2074381E-2,.418413E-2,0
STARLINK-37819,2026-143D,2026-07-05T04:53:59.187264,15.79497018,.00043343,97.2815,229.9950,303.2106,56.8745,0,U,69652,999,333,-.54574786E-2,-.89078E-2,0
STARLINK-37729,2026-143E,2026-07-04T16:00:03.000096,15.81087615,.00008452,97.2828,229.4377,122.1144,86.2478,0,U,69653,999,327,.11980515E-2,.238674E-2,0
STARLINK-37838,2026-143F,2026-07-05T04:52:39.524736,15.80881148,.00009662,97.2826,229.9954,27.2874,332.8444,0,U,69654,999,333,.2418216E-2,.49164E-2,0
STARLINK-37884,2026-143G,2026-07-05T04:00:03.000096,15.74894474,.00017896,97.2834,229.9727,80.0125,109.1389,0,U,69655,999,335,-.20329002E-1,-.2611093E-1,0
STARLINK-37876,2026-143H,2026-07-04T16:36:43.384320,15.80890720,.0001125,97.2816,229.4660,196.7545,163.3686,0,U,69656,999,318,.5190141E-3,.100772E-2,0
STARLINK-37784,2026-143J,2026-07-04T15:05:06.692352,15.80851835,.00016201,97.2828,229.3996,126.5846,233.5571,0,U,69657,999,317,-.15600581E-3,-.29972E-3,0
STARLINK-37851,2026-143K,2026-07-05T03:07:53.122944,15.80848392,.00013958,97.2828,229.9417,37.2188,322.9177,0,U,69658,999,325,.20281029E-2,.407662E-2,0
