KUIPER-00549            
1 69616U 26140AA  26185.74746134  .00028927  00000+0  78876-3 0  9995
2 69616  51.8806 313.9047 0007007 339.4110  20.6593 15.37205568  3932
KUIPER-00550            
1 69617U 26140AB  26186.25005787  .00068523  00000+0  20697-2 0  9998
2 69617  51.8802 311.7021 0006944  20.2326 131.6953 15.33594895  3258
KUIPER-00551            
1 69618U 26140AC  26185.40043483  .00035052  00000+0  92663-3 0  9994
2 69618  51.8792 315.3353 0012428 236.2720 123.7083 15.38013977  3883
KUIPER-00554            
1 69619U 26140AD  26185.79426463  .00064314  00000+0  16978-2 0  9997
2 69619  51.8799 313.4749 0011274 249.3268 110.6510 15.37795517  3942
KUIPER-00555            
1 69620U 26140AE  26185.85689885  .00052410  00000+0  13811-2 0  9992
2 69620  51.8831 313.1502 0011439 240.8754 119.1088 15.37939839  3956
KUIPER-00556            
1 69621U 26140AF  26185.79278657  .00050582  00000+0  13249-2 0  9990
2 69621  51.8812 313.4680 0012227 227.8886 132.1062 15.38132398  3945
KUIPER-00557            
1 69622U 26140AG  26185.73229477  .00061492  00000+0  16488-2 0  9991
2 69622  51.8816 313.8112 0009950 257.0705 102.9170 15.37347388  3938
KUIPER-00560            
1 69623U 26140AH  26185.73087569  .00089501  00000+0  22830-2 0  9995
2 69623  51.8784 313.7982 0009157 262.1846  97.8102 15.38716800  3936
KUIPER-00561            
1 69624U 26140AJ  26185.73272478  .00074454  00000+0  19180-2 0  9996
2 69624  51.8816 313.8173 0008073 264.8241  95.1825 15.38511982  3937
KUIPER-00564            
1 69625U 26140AK  26185.79418812  .00059469  00000+0  15201-2 0  9996
2 69625  51.8810 313.4792 0009445 254.1427 105.8520 15.38838760  3945
KUIPER-00567            
1 69626U 26140AL  26185.79081247  .00032958  00000+0  86459-3 0  9993
2 69626  51.8783 313.4511 0012929 228.8684 131.1188 15.38274975  3942
KUIPER-00573            
1 69627U 26140AM  26185.73545460  .00055664  00000+0  14973-2 0  9990
2 69627  51.8769 313.8274 0009731 242.2226 117.7775 15.37296328  3932
KZ-11 R/B               
1 69628U 26138H   26186.23536200  .00816176  95691-5  88601-3 0  9995
2 69628  55.1567 202.1823 0423366 124.7005 239.4675 15.31361881  2716
ZHUQUE-2E DEB           
1 69629U 26128D   26186.09178212  .00407015  00000+0  23533-2 0  9998
2 69629  54.5293 218.6136 0050797  10.7475 349.4636 15.75189001  4007
ZHUQUE-2E DEB           
1 69630U 26128E   26185.79502466  .00026387  00000+0  29842-3 0  9997
2 69630  54.5280 221.5272 0078227  20.3528 340.0591 15.58561172  3924
ZHUQUE-2E DEB           
1 69631U 26128F   26186.12485661  .00367099  00000+0  30048-2 0  9990
2 69631  54.5237 219.4597 0063249  13.5236 346.7475 15.66358722  3985
ZHUQUE-2E DEB           
1 69634U 26128J   26186.12233656  .02711983  61147-2  57523-2 0  9994
2 69634  54.5238 216.6205 0055246  49.8486 310.7381 15.96684952  3900
CENTISPACE-1 GROUP 05 O*
1 69636U 26138J   26186.21500307 -.00000424  00000+0 -13671-3 0  9993
2 69636  55.1390 214.5577 0008838 321.6887  38.3459 14.15846137  2541
VICTUS HAZE PUMA        
1 69646U 26142A   26186.31006071  .00005676  00000+0  25896-3 0  9993
2 69646  97.4474  83.7278 0025605 302.9088  56.9684 15.20728196  2428
HOKUSHIN-1              
1 69648U 98067YH  26185.46713764  .00043241  00000+0  74499-3 0  9992
2 69648  51.6311 214.4586 0006108 290.4297  69.6036 15.50604554  2333
STARLINK-37656          
1 69649U 26143A   26186.25005787 -.01367031  00000+0 -15987-1 0  9990
2 69649  97.2840 229.9915 0001349  78.0751  66.7467 15.64615020  3366
STARLINK-37646          
1 69650U 26143B   26186.20113184 -.00857579  00000+0 -51596-2 0  9995
2 69650  97.2826 229.9988 0002176 132.6833 227.4618 15.79836527  3333
STARLINK-37749          
1 69651U 26143C   26185.56605093  .00418413  00000+0  20744-2 0  9998
2 69651  97.2829 229.3314 0003105  75.0816 285.0796 15.80896785  3238
STARLINK-37819          
1 69652U 26143D   26186.20415726 -.00890780  00000+0 -54575-2 0  9995
2 69652  97.2815 229.9950 0004334 303.2106  56.8745 15.79497018  3332
STARLINK-37729          
1 69653U 26143E   26185.66670139  .00238674  00000+0  11981-2 0  9996
2 69653  97.2828 229.4377 0000845 122.1144  86.2478 15.81087615  3272
STARLINK-37838          
1 69654U 26143F   26186.20323524  .00491640  00000+0  24182-2 0  9992
2 69654  97.2826 229.9954 0000966  27.2874 332.8444 15.80881148  3338
STARLINK-37884          
1 69655U 26143G   26186.16670139 -.02611093  00000+0 -20329-1 0  9993
2 69655  97.2834 229.9727 0001789  80.0125 109.1389 15.74894474  3350
STARLINK-37876          
1 69656U 26143H   26185.69216880  .00100772  00000+0  51901-3 0  9995
2 69656  97.2816 229.4660 0001125 196.7545 163.3686 15.80890720  3187
STARLINK-37784          
1 69657U 26143J   26185.62854968 -.00029972  00000+0 -15601-3 0  9995
2 69657  97.2828 229.3996 0001620 126.5846 233.5571 15.80851835  3173
STARLINK-37851          
1 69658U 26143K   26186.13047596  .00407662  00000+0  20281-2 0  9997
2 69658  97.2828 229.9417 0001395  37.2188 322.9177 15.80848392  3252
